CCSDS_OMM_VERS = 2.0
CREATION_DATE  = 
ORIGINATOR     = 

OBJECT_NAME    = 2025-313M
OBJECT_ID      = 2025-313M
CENTER_NAME    = EARTH
REF_FRAME      = TEME
TIME_SYSTEM    = UTC
MEAN_ELEMENT_THEORY = SGP/SGP4

EPOCH          = 2026-01-16T12:06:26.088768
MEAN_MOTION    = 15.20257293
ECCENTRICITY   = .00159468
INCLINATION    = 97.4152
RA_OF_ASC_NODE = 93.6555
ARG_OF_PERICENTER = 170.2847
MEAN_ANOMALY   = 189.8700

EPHEMERIS_TYPE = 0
CLASSIFICATION_TYPE = U
NORAD_CAT_ID   = 67259
ELEMENT_SET_NO = 999
REV_AT_EPOCH   = 288
BSTAR          = .44686486E-3
MEAN_MOTION_DOT = .9666E-4
MEAN_MOTION_DDOT = 0

CCSDS_OMM_VERS = 2.0
CREATION_DATE  = 
ORIGINATOR     = 

OBJECT_NAME    = SITRO-AIS-60
OBJECT_ID      = 2025-313N
CENTER_NAME    = EARTH
REF_FRAME      = TEME
TIME_SYSTEM    = UTC
MEAN_ELEMENT_THEORY = SGP/SGP4

EPOCH          = 2026-01-16T12:08:28.327488
MEAN_MOTION    = 15.20048492
ECCENTRICITY   = .00161272
INCLINATION    = 97.4118
RA_OF_ASC_NODE = 93.6339
ARG_OF_PERICENTER = 171.7660
MEAN_ANOMALY   = 188.3843

EPHEMERIS_TYPE = 0
CLASSIFICATION_TYPE = U
NORAD_CAT_ID   = 67260
ELEMENT_SET_NO = 999
REV_AT_EPOCH   = 288
BSTAR          = .27262126E-3
MEAN_MOTION_DOT = .5832E-4
MEAN_MOTION_DDOT = 0

CCSDS_OMM_VERS = 2.0
CREATION_DATE  = 
ORIGINATOR     = 

OBJECT_NAME    = 2025-313P
OBJECT_ID      = 2025-313P
CENTER_NAME    = EARTH
REF_FRAME      = TEME
TIME_SYSTEM    = UTC
MEAN_ELEMENT_THEORY = SGP/SGP4

EPOCH          = 2026-01-16T12:04:18.507936
MEAN_MOTION    = 15.20456687
ECCENTRICITY   = .00157127
INCLINATION    = 97.4153
RA_OF_ASC_NODE = 93.6579
ARG_OF_PERICENTER = 170.7358
MEAN_ANOMALY   = 189.4170

EPHEMERIS_TYPE = 0
CLASSIFICATION_TYPE = U
NORAD_CAT_ID   = 67261
ELEMENT_SET_NO = 999
REV_AT_EPOCH   = 288
BSTAR          = .59331581E-3
MEAN_MOTION_DOT = .12935E-3
MEAN_MOTION_DDOT = 0

CCSDS_OMM_VERS = 2.0
CREATION_DATE  = 
ORIGINATOR     = 

OBJECT_NAME    = 2025-313Q
OBJECT_ID      = 2025-313Q
CENTER_NAME    = EARTH
REF_FRAME      = TEME
TIME_SYSTEM    = UTC
MEAN_ELEMENT_THEORY = SGP/SGP4

EPOCH          = 2026-01-16T13:41:04.619904
MEAN_MOTION    = 15.20237828
ECCENTRICITY   = .00158052
INCLINATION    = 97.4120
RA_OF_ASC_NODE = 93.7012
ARG_OF_PERICENTER = 172.2459
MEAN_ANOMALY   = 187.9024

EPHEMERIS_TYPE = 0
CLASSIFICATION_TYPE = U
NORAD_CAT_ID   = 67262
ELEMENT_SET_NO = 999
REV_AT_EPOCH   = 289
BSTAR          = .38908871E-3
MEAN_MOTION_DOT = .84E-4
MEAN_MOTION_DDOT = 0

CCSDS_OMM_VERS = 2.0
CREATION_DATE  = 
ORIGINATOR     = 

OBJECT_NAME    = DCS-1
OBJECT_ID      = 2025-313R
CENTER_NAME    = EARTH
REF_FRAME      = TEME
TIME_SYSTEM    = UTC
MEAN_ELEMENT_THEORY = SGP/SGP4

EPOCH          = 2026-01-16T10:31:57.809856
MEAN_MOTION    = 15.20182032
ECCENTRICITY   = .00157438
INCLINATION    = 97.4133
RA_OF_ASC_NODE = 93.5860
ARG_OF_PERICENTER = 171.5653
MEAN_ANOMALY   = 188.5850

EPHEMERIS_TYPE = 0
CLASSIFICATION_TYPE = U
NORAD_CAT_ID   = 67263
ELEMENT_SET_NO = 999
REV_AT_EPOCH   = 287
BSTAR          = .33834096E-3
MEAN_MOTION_DOT = .7283E-4
MEAN_MOTION_DDOT = 0

CCSDS_OMM_VERS = 2.0
CREATION_DATE  = 
ORIGINATOR     = 

OBJECT_NAME    = 2025-313S
OBJECT_ID      = 2025-313S
CENTER_NAME    = EARTH
REF_FRAME      = TEME
TIME_SYSTEM    = UTC
MEAN_ELEMENT_THEORY = SGP/SGP4

EPOCH          = 2026-01-16T13:42:47.519712
MEAN_MOTION    = 15.20057130
ECCENTRICITY   = .00157317
INCLINATION    = 97.4202
RA_OF_ASC_NODE = 93.7141
ARG_OF_PERICENTER = 176.1235
MEAN_ANOMALY   = 184.0125

EPHEMERIS_TYPE = 0
CLASSIFICATION_TYPE = U
NORAD_CAT_ID   = 67264
ELEMENT_SET_NO = 999
REV_AT_EPOCH   = 289
BSTAR          = .2435738E-3
MEAN_MOTION_DOT = .5203E-4
MEAN_MOTION_DDOT = 0

CCSDS_OMM_VERS = 2.0
CREATION_DATE  = 
ORIGINATOR     = 

OBJECT_NAME    = SITRO-TD-4
OBJECT_ID      = 2025-313T
CENTER_NAME    = EARTH
REF_FRAME      = TEME
TIME_SYSTEM    = UTC
MEAN_ELEMENT_THEORY = SGP/SGP4

EPOCH          = 2026-01-16T12:06:12.704544
MEAN_MOTION    = 15.20209193
ECCENTRICITY   = .00156657
INCLINATION    = 97.4112
RA_OF_ASC_NODE = 93.6458
ARG_OF_PERICENTER = 172.1803
MEAN_ANOMALY   = 187.9679

EPHEMERIS_TYPE = 0
CLASSIFICATION_TYPE = U
NORAD_CAT_ID   = 67265
ELEMENT_SET_NO = 999
REV_AT_EPOCH   = 288
BSTAR          = .35519444E-3
MEAN_MOTION_DOT = .7655E-4
MEAN_MOTION_DDOT = 0

CCSDS_OMM_VERS = 2.0
CREATION_DATE  = 
ORIGINATOR     = 

OBJECT_NAME    = SITRO-AIS-65
OBJECT_ID      = 2025-313U
CENTER_NAME    = EARTH
REF_FRAME      = TEME
TIME_SYSTEM    = UTC
MEAN_ELEMENT_THEORY = SGP/SGP4

EPOCH          = 2026-01-16T12:06:07.012512
MEAN_MOTION    = 15.20216875
ECCENTRICITY   = .00156059
INCLINATION    = 97.4140
RA_OF_ASC_NODE = 93.6521
ARG_OF_PERICENTER = 170.8973
MEAN_ANOMALY   = 189.2548

EPHEMERIS_TYPE = 0
CLASSIFICATION_TYPE = U
NORAD_CAT_ID   = 67266
ELEMENT_SET_NO = 999
REV_AT_EPOCH   = 288
BSTAR          = .31299425E-3
MEAN_MOTION_DOT = .6738E-4
MEAN_MOTION_DDOT = 0

CCSDS_OMM_VERS = 2.0
CREATION_DATE  = 
ORIGINATOR     = 

OBJECT_NAME    = 2025-313V
OBJECT_ID      = 2025-313V
CENTER_NAME    = EARTH
REF_FRAME      = TEME
TIME_SYSTEM    = UTC
MEAN_ELEMENT_THEORY = SGP/SGP4

EPOCH          = 2026-01-16T12:05:25.406592
MEAN_MOTION    = 15.20279989
ECCENTRICITY   = .00148078
INCLINATION    = 97.4122
RA_OF_ASC_NODE = 93.6399
ARG_OF_PERICENTER = 176.4790
MEAN_ANOMALY   = 183.6552

EPHEMERIS_TYPE = 0
CLASSIFICATION_TYPE = U
NORAD_CAT_ID   = 67267
ELEMENT_SET_NO = 999
REV_AT_EPOCH   = 288
BSTAR          = .40241361E-3
MEAN_MOTION_DOT = .8698E-4
MEAN_MOTION_DDOT = 0

CCSDS_OMM_VERS = 2.0
CREATION_DATE  = 
ORIGINATOR     = 

OBJECT_NAME    = ZORKY-2M 7
OBJECT_ID      = 2025-313W
CENTER_NAME    = EARTH
REF_FRAME      = TEME
TIME_SYSTEM    = UTC
MEAN_ELEMENT_THEORY = SGP/SGP4

EPOCH          = 2026-01-16T12:06:31.645152
MEAN_MOTION    = 15.20169058
ECCENTRICITY   = .00157666
INCLINATION    = 97.4122
RA_OF_ASC_NODE = 93.6373
ARG_OF_PERICENTER = 171.6230
MEAN_ANOMALY   = 188.5272

EPHEMERIS_TYPE = 0
CLASSIFICATION_TYPE = U
NORAD_CAT_ID   = 67268
ELEMENT_SET_NO = 999
REV_AT_EPOCH   = 288
BSTAR          = .3030508E-3
MEAN_MOTION_DOT = .6513E-4
MEAN_MOTION_DDOT = 0

CCSDS_OMM_VERS = 2.0
CREATION_DATE  = 
ORIGINATOR     = 

OBJECT_NAME    = 2025-313X
OBJECT_ID      = 2025-313X
CENTER_NAME    = EARTH
REF_FRAME      = TEME
TIME_SYSTEM    = UTC
MEAN_ELEMENT_THEORY = SGP/SGP4

EPOCH          = 2026-01-16T10:30:01.431648
MEAN_MOTION    = 15.20359002
ECCENTRICITY   = .00155705
INCLINATION    = 97.4148
RA_OF_ASC_NODE = 93.5903
ARG_OF_PERICENTER = 170.4709
MEAN_ANOMALY   = 189.6825

EPHEMERIS_TYPE = 0
CLASSIFICATION_TYPE = U
NORAD_CAT_ID   = 67269
ELEMENT_SET_NO = 999
REV_AT_EPOCH   = 287
BSTAR          = .45766339E-3
MEAN_MOTION_DOT = .9929E-4
MEAN_MOTION_DDOT = 0

CCSDS_OMM_VERS = 2.0
CREATION_DATE  = 
ORIGINATOR     = 

OBJECT_NAME    = SITRO-TD-3
OBJECT_ID      = 2025-313Y
CENTER_NAME    = EARTH
REF_FRAME      = TEME
TIME_SYSTEM    = UTC
MEAN_ELEMENT_THEORY = SGP/SGP4

EPOCH          = 2026-01-16T12:06:38.535552
MEAN_MOTION    = 15.20191477
ECCENTRICITY   = .0015707
INCLINATION    = 97.4122
RA_OF_ASC_NODE = 93.6477
ARG_OF_PERICENTER = 171.9081
MEAN_ANOMALY   = 188.2411

EPHEMERIS_TYPE = 0
CLASSIFICATION_TYPE = U
NORAD_CAT_ID   = 67270
ELEMENT_SET_NO = 999
REV_AT_EPOCH   = 288
BSTAR          = .37115967E-3
MEAN_MOTION_DOT = .7998E-4
MEAN_MOTION_DDOT = 0

