2025-313M               
1 67259U 25313M   26016.50446862  .00009666  00000+0  44686-3 0  9990
2 67259  97.4152  93.6555 0015946 170.2847 189.8700 15.20257293  2883
SITRO-AIS-60            
1 67260U 25313N   26016.50588342  .00005832  00000+0  27262-3 0  9994
2 67260  97.4118  93.6339 0016127 171.7660 188.3843 15.20048492  2889
2025-313P               
1 67261U 25313P   26016.50299199  .00012935  00000+0  59332-3 0  9999
2 67261  97.4153  93.6579 0015712 170.7358 189.4170 15.20456687  2881
2025-313Q               
1 67262U 25313Q   26016.57019236  .00008400  00000+0  38909-3 0  9998
2 67262  97.4120  93.7012 0015805 172.2459 187.9024 15.20237828  2897
DCS-1                   
1 67263U 25313R   26016.43886354  .00007283  00000+0  33834-3 0  9997
2 67263  97.4133  93.5860 0015743 171.5653 188.5850 15.20182032  2878
2025-313S               
1 67264U 25313S   26016.57138333  .00005203  00000+0  24357-3 0  9990
2 67264  97.4202  93.7141 0015731 176.1235 184.0125 15.20057130  2892
SITRO-TD-4              
1 67265U 25313T   26016.50431371  .00007655  00000+0  35519-3 0  9997
2 67265  97.4112  93.6458 0015665 172.1803 187.9679 15.20209193  2889
SITRO-AIS-65            
1 67266U 25313U   26016.50424783  .00006738  00000+0  31299-3 0  9999
2 67266  97.4140  93.6521 0015605 170.8973 189.2548 15.20216875  2884
2025-313V               
1 67267U 25313V   26016.50376628  .00008698  00000+0  40241-3 0  9998
2 67267  97.4122  93.6399 0014807 176.4790 183.6552 15.20279989  2888
ZORKY-2M 7              
1 67268U 25313W   26016.50453293  .00006513  00000+0  30305-3 0  9997
2 67268  97.4122  93.6373 0015766 171.6230 188.5272 15.20169058  2880
2025-313X               
1 67269U 25313X   26016.43751657  .00009929  00000+0  45766-3 0  9996
2 67269  97.4148  93.5903 0015570 170.4709 189.6825 15.20359002  2873
SITRO-TD-3              
1 67270U 25313Y   26016.50461268  .00007998  00000+0  37116-3 0  9996
2 67270  97.4122  93.6477 0015707 171.9081 188.2411 15.20191477  2882
